{"fetched_at":"2026-03-29T16:36:15Z","count":15609,"tles":[{"name":"STARLINK-3847","line1":"1 52333U 22045C   26087.79826877 -.00000142  00000+0  91670-5 0  9991","line2":"2 52333  53.2162 123.3415 0001187  92.4098 267.7031 15.08836752218513","category":"Starlink"}]}